[{"OBJECT_NAME":"STARLINK-32659","OBJECT_ID":"2024-249U","EPOCH":"2026-03-09T23:22:57.363456","MEAN_MOTION":15.27603893,"ECCENTRICITY":0.00013021,"INCLINATION":42.9991,"RA_OF_ASC_NODE":312.7722,"ARG_OF_PERICENTER":256.0996,"MEAN_ANOMALY":103.9711,"EPHEMERIS_TYPE":0,"CLASSIFICATION_TYPE":"U","NORAD_CAT_ID":62427,"ELEMENT_SET_NO":999,"REV_AT_EPOCH":6785,"BSTAR":0.0014840477,"MEAN_MOTION_DOT":0.00040832,"MEAN_MOTION_DDOT":0},{"OBJECT_NAME":"AL MUNTHER","OBJECT_ID":"2025-052AG","EPOCH":"2026-03-09T15:29:23.207136","MEAN_MOTION":15.28381521,"ECCENTRICITY":0.0008027,"INCLINATION":97.4001,"RA_OF_ASC_NODE":323.9152,"ARG_OF_PERICENTER":130.7043,"MEAN_ANOMALY":229.4895,"EPHEMERIS_TYPE":0,"CLASSIFICATION_TYPE":"U","NORAD_CAT_ID":63240,"ELEMENT_SET_NO":999,"REV_AT_EPOCH":5479,"BSTAR":0.00065015,"MEAN_MOTION_DOT":0.00017933,"MEAN_MOTION_DDOT":0}]
